#cP2016 11 13  6  0  0.00000000     192 ORBIT IGb08 HLM  IGS
## 1923  21600.00000000   900.00000000 57705 0.2500000000000
+   31   G01G02G03G05G06G07G08G09G10G11G12G13G14G15G16G17G18
+        G19G20G21G22G23G24G25G26G27G28G29G30G31G32  0  0  0
+          0  0  0  0  0  0  0  0  0  0  0  0  0  0  0  0  0
+          0  0  0  0  0  0  0  0  0  0  0  0  0  0  0  0  0
+          0  0  0  0  0  0  0  0  0  0  0  0  0  0  0  0  0
++         3  4  3  4  3  4  4  3  3  3  4  3  3  5  3  4  4
++         5  4  4  4  3  3  3  3  4  3  3  3  3  4  0  0  0
++         0  0  0  0  0  0  0  0  0  0  0  0  0  0  0  0  0
++         0  0  0  0  0  0  0  0  0  0  0  0  0  0  0  0  0
++         0  0  0  0  0  0  0  0  0  0  0  0  0  0  0  0  0
%c G  cc GPS ccc cccc cccc cccc cccc ccccc ccccc ccccc ccccc
%c cc cc ccc ccc cccc cccc cccc cccc ccccc ccccc ccccc ccccc
%f  1.2500000  1.025000000  0.00000000000  0.000000000000000
%f  0.0000000  0.000000000  0.00000000000  0.000000000000000
%i    0    0    0    0      0      0      0      0         0
%i    0    0    0    0      0      0      0      0         0
/* ULTRA ORBIT COMBINATION 19231_06 (57706.250) FROM:       
/* cou emu esu gfu siu usu whu                              
/* REFERENCED TO emu CLOCK AND TO WEIGHTED MEAN POLE:       
/* PCV:IGS08_1921 OL/AL:FES2004  NONE     Y  ORB:CMB CLK:CMB
*  2016 11 13 21 45  0.00000000
PG01 -13665.592041  10902.376811  19818.837702     40.395132  7  5    217       
PG02  13685.678233  13714.866167 -17861.052936    525.898425 11 10  8 217       
PG03 -23201.396282  12875.066656   1002.538815    -98.067920  6  5  5 199       
PG05  20265.243163   2183.658317 -17216.258485    -78.281234  9 10  6 183       
PG06   7780.965191  22975.091471 -10804.649386    272.648052  5  5  8 180       
PG07  -6877.569859  23529.787000  -9508.331535    411.137258  6     6 198       
PG08 -22863.603521  -1981.167061  13470.906845    -38.854195  3  6  6 180       
PG09  -6856.626148  13751.512691 -21687.153702    244.019622  7       170       
PG10   -542.489370 -16588.045316  20729.200047   -113.921122  8  6    171       
PG11 -15395.042200   5299.458852  20418.085528   -671.308595  6  6  6 181       
PG12  24077.493835 -10608.355604   2534.871797    389.495479  8  8  9 192       
PG13  23034.362340  11645.081942   6000.614801    -54.718059  7  5  5 159       
PG14 -17795.576448 -18363.986382   7726.181798    -44.878895  8     6 198       
PG15  23348.647435    609.066843  12830.809569   -334.216076  4  6  8 165       
PG16 -19848.431124  -3111.816988 -17676.105416     15.400563  6 10  8 209       
PG17  10866.734334  19066.833629  15438.598951   -199.209526  7  6  4 211       
PG18  10221.750321 -19835.753464  14784.113574    575.711407  8  9  7 188       
PG19  16171.817738  18694.997287   9020.966440   -520.079156 10  7  9 224       
PG20  22954.961667 -12818.762687  -3991.988733    445.818521 11  9  7 231       
PG21   3165.850037 -25435.502052  -5801.876057   -531.604401 10  8  6 222       
PG22 -24061.941108   8793.448600   7433.004866    191.102049 11  9  9 231       
PG23 -18371.429349   5026.648556 -18471.888909   -196.611486  7  9  6 160       
PG24  14567.953962  -7857.107600  20666.572169    -26.053777     9  3 204       
PG25  17436.896010 -17603.022741  -9415.204595   -281.468576  9  8  5 205       
PG26 -11577.335739 -10555.112074 -21444.847855   -500.399529  5  8  6 163       
PG27 -23654.839842 -12228.313024   1242.255912    165.122330  7  5  8 142       
PG28  -3306.908113  16886.963273  20863.446214    566.743850  7  7  5 221       
PG29   9990.567018 -11107.854693 -21958.659201    643.603489  6  9  3 240       
PG30   -510.813175  26462.686404   1274.858606    156.995851  9     5 159       
PG31  -7626.103251 -22268.040943 -11823.351066    236.902786 10  8  5 223       
PG32 -10563.660871 -18554.019574  15825.721688   -197.008706 12  3 10 199       
*  2016 11 13 22  0  0.00000000
PG01 -13851.103665   8556.141803  20832.702170     40.396238  7  5  2 219       
PG02  13687.561693  15743.801434 -16183.157824    525.893438 11 10  8 215       
PG03 -23105.844665  12506.858393   3838.086091    -98.069711  6  5  5 201       
PG05  18640.926899   3429.381308 -18767.576927    -78.279213  8 10  6 185       
PG06   7612.144117  24073.865704  -8227.633242    272.652528  5  4  8 171       
PG07  -7148.975388  22268.939505 -12014.052023    411.134605  6     6 201       
PG08 -24018.026926  -2790.230383  11106.021750    -38.854969  3  6  7 173       
PG09  -9053.714303  12618.556059 -21570.269902    244.026164  7       174       
PG10   1457.771344 -17752.781102  19685.735740   -113.922535  8  6    176       
PG11 -16368.258893   3037.030257  20126.823293   -671.309811  5  4  6 174       
PG12  23757.185839 -10215.479666   5412.425085    389.495409  8  8  9 196       
PG13  23353.982453  12135.998402   3185.074965    -54.719957  8  3  4 173       
PG14 -16839.608454 -18015.986211  10324.233651    -44.880286  8     6 202       
PG15  24477.484281   1395.313980  10513.156340   -334.217317  4  7  8 172       
PG16 -18053.009243  -4157.549475 -19286.619069     15.401622  7 10  7 208       
PG17   9243.414096  18259.270866  17377.223756   -199.209259  7  6  5 212       
PG18  11615.739159 -20465.996923  12640.693232    575.714621  8  9  6 192       
PG19  15030.560995  18211.428003  11580.513651   -520.078450 11  6  9 224       
PG20  22689.171164 -12186.537539  -6686.404644    445.820049 12  9  7 232       
PG21   3564.970360 -24549.717639  -8457.282778   -531.603509  9  7  6 221       
PG22 -23445.209429   7979.565752   9961.809516    191.092302 11  9  9 232       
PG23 -20126.029815   3953.278230 -16892.717616   -196.612642  8  8  5 138       
PG24  14811.705231  -5447.609870  21277.908353    -26.053236  2  9  5 204       
PG25  18315.512558 -17917.576050  -6716.323350   -281.474711  9  7  5 196       
PG26  -9517.115236 -11922.145584 -21734.504604   -500.403575  6  8  6 176       
PG27 -23544.953976 -12402.902916  -1627.811611    165.127047  7  5  8  89       
PG28  -5265.222676  17852.145972  19575.284005    566.746852  6  7  5 218       
PG29  12106.799505  -9810.714693 -21504.980582    643.602249  6  9  3 239       
PG30   -805.192752  26439.666676  -1566.211218    156.996615  9     5 176       
PG31  -7408.605053 -23502.197265  -9292.240916    236.901277 10  7  5 223       
PG32  -8787.145056 -17826.982356  17642.211677   -197.023786 12  3  9 196       
*  2016 11 13 22 15  0.00000000
PG01 -14167.952111   6130.293318  21483.197113     40.397317  7  5  3 217       
PG02  13760.927082  17559.438407 -14221.739902    525.888381 12  9  8 220       
PG03 -22772.068814  11948.520444   6607.513680    -98.071545  7  6  6 196       
PG05  16954.890439   4849.082476 -20000.018872    -78.277072  8 10  7 181       
PG06   7470.130675  24881.568347  -5508.931914    272.657000  5  4  7 177       
PG07  -7506.888172  20749.763584 -14306.673126    411.131498  6  2  6 195       
PG08 -24959.087416  -3425.753783   8551.026670    -38.856357  2  5  7 179       
PG09 -11274.649085  11613.337084 -21083.043218    244.032705  7       169       
PG10   3284.624611 -18939.155026  18303.078341   -113.924026  8  6  1 165       
PG11 -17406.881772    864.872579  19471.463636   -671.311184  5  4  7 180       
PG12  23187.536621  -9629.227552   8195.334212    389.495566  9  8  9 193       
PG13  23421.851012  12443.366963    314.400219    -54.721613  9  2  3 166       
PG14 -15620.269471 -17584.042173  12748.057213    -44.881981  7     5 201       
PG15  25388.692292   2029.775392   8016.889954   -334.218567  4  8  8 160       
PG16 -16180.414482  -5392.055148 -20571.974663     15.403055  7 10  7 210       
PG17   7399.615393  17453.517395  19026.305748   -199.208194  7  6  5 210       
PG18  12785.978946 -21006.156886  10283.459580    575.717233  9  9  6 192       
PG19  13618.608266  17650.812303  13934.788207   -520.078079 11  6  9 224       
PG20  22228.655952 -11350.128764  -9266.375114    445.821430 12  9  6 232       
PG21   4050.053557 -23387.457642 -10961.160844   -531.602199  8  7  5 227       
PG22 -22651.110594   6971.826538  12321.741578    191.082821 12  9  9 232       
PG23 -21750.770837   3050.959391 -15023.196111   -196.613878  8  8  4 160       
PG24  15180.784667  -3007.228253  21520.285670    -26.052978  4  9  6 202       
PG25  18922.336120 -18095.548145  -3900.912856   -281.480889  8  6  6 206       
PG26  -7520.847646 -13401.535315 -21649.915286   -500.407808  6  9  6 162       
PG27 -23149.974773 -12452.725551  -4470.184378    165.131692  7  5  8 133       
PG28  -7031.116673  18846.443894  17966.845666    566.749312  7  6  5 219       
PG29  14227.017549  -8665.143863 -20681.151394    643.600488  5  9  3 238       
PG30  -1112.170118  26111.086140  -4380.134279    156.997360  9     5 158       
PG31  -7235.297905 -24447.750560  -6597.099397    236.899150 10  6  5 223       
PG32  -6802.867536 -17117.194842  19155.632531   -197.038893 13  2  8 197       
EOF
